BANDWAGON-4 OBJECT M    
1 66304U 25248M   26068.03503276  .00023645  00000+0  95704-3 0  9995
2 66304  45.4108 294.9904 0012944 207.5285 152.4918 15.24295413 18037
STARLINK-36454          
1 67470U 26008AB  26068.42370959  .00028167  00000+0  10285-2 0  9992
2 67470  43.0057 206.5280 0005220 293.9378  66.0927 15.27592972  9534
